IRIDIUM 143             
1 43258U 18030K   24348.51596353  .00000011  00000+0 -31693-5 0  9991
2 43258  86.3993 160.7290 0001368  96.2571 263.8780 14.34217523351167
IRIDIUM 161             
1 43478U 18047C   24348.68213886  .00000770  00000+0  22306-3 0  9998
2 43478  86.4476 318.5239 0002156  88.8989 271.2459 14.43276667345736
IRIDIUM 152             
1 43479U 18047D   24349.18636332  .00000419  00000+0  14267-3 0  9997
2 43479  86.3951 318.1725 0002259  84.6790 275.4663 14.34214039343666
IRIDIUM 147             
1 43480U 18047E   24349.19271284  .00000483  00000+0  16547-3 0  9995
2 43480  86.3954 318.1653 0002593  85.6853 274.4639 14.34218254343657
IRIDIUM 110             
1 43481U 18047F   24349.19905502  .00000053  00000+0  11819-4 0  9994
2 43481  86.3957 318.2403 0002534  79.2299 280.9182 14.34217630343644
IRIDIUM 160             
1 43569U 18061A   24348.79604632  .00000346  00000+0  11633-3 0  9990
2 43569  86.3958 286.7671 0002438  86.9017 273.2458 14.34215410334481
